[{"OBJECT_NAME":"SRMSAT","OBJECT_ID":"2011-058D","EPOCH":"2026-03-09T21:52:00.886368","MEAN_MOTION":14.11547804,"ECCENTRICITY":0.00117783,"INCLINATION":19.9724,"RA_OF_ASC_NODE":300.3652,"ARG_OF_PERICENTER":191.4566,"MEAN_ANOMALY":283.6478,"EPHEMERIS_TYPE":0,"CLASSIFICATION_TYPE":"U","NORAD_CAT_ID":37841,"ELEMENT_SET_NO":999,"REV_AT_EPOCH":74377,"BSTAR":0.00012150267,"MEAN_MOTION_DOT":4.89e-6,"MEAN_MOTION_DDOT":0},{"OBJECT_NAME":"FENGYUN 1C DEB","OBJECT_ID":"1999-025CSK","EPOCH":"2026-03-09T22:54:53.406720","MEAN_MOTION":14.03727162,"ECCENTRICITY":0.00733393,"INCLINATION":98.7486,"RA_OF_ASC_NODE":73.0347,"ARG_OF_PERICENTER":324.5682,"MEAN_ANOMALY":35.0626,"EPHEMERIS_TYPE":0,"CLASSIFICATION_TYPE":"U","NORAD_CAT_ID":32141,"ELEMENT_SET_NO":999,"REV_AT_EPOCH":96167,"BSTAR":0.00057664215,"MEAN_MOTION_DOT":8.86e-6,"MEAN_MOTION_DDOT":0}]
